[{"OBJECT_NAME":"ONEWEB-0033","OBJECT_ID":"2020-008M","EPOCH":"2026-05-10T04:18:29.981952","MEAN_MOTION":13.10375606,"ECCENTRICITY":0.0001535,"INCLINATION":87.8858,"RA_OF_ASC_NODE":43.8422,"ARG_OF_PERICENTER":64.5376,"MEAN_ANOMALY":295.591,"EPHEMERIS_TYPE":0,"CLASSIFICATION_TYPE":"U","NORAD_CAT_ID":45142,"ELEMENT_SET_NO":999,"REV_AT_EPOCH":30323,"BSTAR":-0.0012491,"MEAN_MOTION_DOT":-4.23e-06,"MEAN_MOTION_DDOT":0.0},{"OBJECT_NAME":"ONEWEB-0035","OBJECT_ID":"2020-008N","EPOCH":"2026-05-10T04:54:52.304256","MEAN_MOTION":13.10886714,"ECCENTRICITY":0.0001772,"INCLINATION":87.8852,"RA_OF_ASC_NODE":43.8324,"ARG_OF_PERICENTER":75.5622,"MEAN_ANOMALY":284.5703,"EPHEMERIS_TYPE":0,"CLASSIFICATION_TYPE":"U","NORAD_CAT_ID":45143,"ELEMENT_SET_NO":999,"REV_AT_EPOCH":30296,"BSTAR":0.001771,"MEAN_MOTION_DOT":6.36e-06,"MEAN_MOTION_DDOT":0.0},{"OBJECT_NAME":"ONEWEB-0036","OBJECT_ID":"2020-008P","EPOCH":"2026-05-10T03:50:11.122944","MEAN_MOTION":13.0981662,"ECCENTRICITY":0.0002026,"INCLINATION":87.8868,"RA_OF_ASC_NODE":43.8379,"ARG_OF_PERICENTER":85.6355,"MEAN_ANOMALY":274.5003,"EPHEMERIS_TYPE":0,"CLASSIFICATION_TYPE":"U","NORAD_CAT_ID":45144,"ELEMENT_SET_NO":999,"REV_AT_EPOCH":30338,"BSTAR":-0.001072,"MEAN_MOTION_DOT":-3.59e-06,"MEAN_MOTION_DDOT":0.0},{"OBJECT_NAME":"ONEWEB-0038","OBJECT_ID":"2020-008Q","EPOCH":"2026-05-10T04:09:14.050656","MEAN_MOTION":13.1141853,"ECCENTRICITY":0.000304,"INCLINATION":87.8936,"RA_OF_ASC_NODE":28.6323,"ARG_OF_PERICENTER":50.609,"MEAN_ANOMALY":309.5307,"EPHEMERIS_TYPE":0,"CLASSIFICATION_TYPE":"U","NORAD_CAT_ID":45145,"ELEMENT_SET_NO":999,"REV_AT_EPOCH":30534,"BSTAR":0.0014018,"MEAN_MOTION_DOT":5.1e-06,"MEAN_MOTION_DDOT":0.0},{"OBJECT_NAME":"ONEWEB-0039","OBJECT_ID":"2020-008R","EPOCH":"2026-05-10T04:23:17.129760","MEAN_MOTION":13.10373055,"ECCENTRICITY":0.0002263,"INCLINATION":87.8857,"RA_OF_ASC_NODE":43.8307,"ARG_OF_PERICENTER":83.1224,"MEAN_ANOMALY":277.016,"EPHEMERIS_TYPE":0,"CLASSIFICATION_TYPE":"U","NORAD_CAT_ID":45146,"ELEMENT_SET_NO":999,"REV_AT_EPOCH":30318,"BSTAR":-0.00041220000000000004,"MEAN_MOTION_DOT":-1.31e-06,"MEAN_MOTION_DDOT":0.0},{"OBJECT_NAME":"ONEWEB-0040","OBJECT_ID":"2020-008S","EPOCH":"2026-05-09T19:03:56.215296","MEAN_MOTION":13.10375065,"ECCENTRICITY":0.0001864,"INCLINATION":87.8855,"RA_OF_ASC_NODE":43.9199,"ARG_OF_PERICENTER":75.4637,"MEAN_ANOMALY":284.6697,"EPHEMERIS_TYPE":0,"CLASSIFICATION_TYPE":"U","NORAD_CAT_ID":45147,"ELEMENT_SET_NO":999,"REV_AT_EPOCH":30283,"BSTAR":-0.0015681,"MEAN_MOTION_DOT":-5.35e-06,"MEAN_MOTION_DDOT":0.0},{"OBJECT_NAME":"ONEWEB-0043","OBJECT_ID":"2020-008U","EPOCH":"2026-05-10T04:16:05.986848","MEAN_MOTION":13.10374094,"ECCENTRICITY":0.0002394,"INCLINATION":87.8859,"RA_OF_ASC_NODE":43.8299,"ARG_OF_PERICENTER":85.3611,"MEAN_ANOMALY":274.779,"EPHEMERIS_TYPE":0,"CLASSIFICATION_TYPE":"U","NORAD_CAT_ID":45149,"ELEMENT_SET_NO":999,"REV_AT_EPOCH":30320,"BSTAR":-0.0015289,"MEAN_MOTION_DOT":-5.21e-06,"MEAN_MOTION_DDOT":0.0},{"OBJECT_NAME":"ONEWEB-0044","OBJECT_ID":"2020-008V","EPOCH":"2026-05-10T04:56:46.588992","MEAN_MOTION":13.10373624,"ECCENTRICITY":0.0002082,"INCLINATION":87.8865,"RA_OF_ASC_NODE":43.8223,"ARG_OF_PERICENTER":79.3206,"MEAN_ANOMALY":280.8156,"EPHEMERIS_TYPE":0,"CLASSIFICATION_TYPE":"U","NORAD_CAT_ID":45150,"ELEMENT_SET_NO":999,"REV_AT_EPOCH":30350,"BSTAR":0.0018628,"MEAN_MOTION_DOT":6.63e-06,"MEAN_MOTION_DDOT":0.0},{"OBJECT_NAME":"ONEWEB-0045","OBJECT_ID":"2020-008W","EPOCH":"2026-05-10T04:01:42.722112","MEAN_MOTION":13.11419148,"ECCENTRICITY":0.0001949,"INCLINATION":87.8928,"RA_OF_ASC_NODE":28.6178,"ARG_OF_PERICENTER":79.5009,"MEAN_ANOMALY":280.6339,"EPHEMERIS_TYPE":0,"CLASSIFICATION_TYPE":"U","NORAD_CAT_ID":45151,"ELEMENT_SET_NO":999,"REV_AT_EPOCH":30542,"BSTAR":0.0014046,"MEAN_MOTION_DOT":5.11e-06,"MEAN_MOTION_DDOT":0.0},{"OBJECT_NAME":"ONEWEB-0047","OBJECT_ID":"2020-008X","EPOCH":"2026-05-10T04:47:12.296832","MEAN_MOTION":13.10374302,"ECCENTRICITY":0.0001864,"INCLINATION":87.8864,"RA_OF_ASC_NODE":43.8237,"ARG_OF_PERICENTER":72.883,"MEAN_ANOMALY":287.2501,"EPHEMERIS_TYPE":0,"CLASSIFICATION_TYPE":"U","NORAD_CAT_ID":45152,"ELEMENT_SET_NO":999,"REV_AT_EPOCH":30322,"BSTAR":0.0014613000000000002,"MEAN_MOTION_DOT":5.23e-06,"MEAN_MOTION_DDOT":0.0},{"OBJECT_NAME":"ONEWEB-0048","OBJECT_ID":"2020-008Y","EPOCH":"2026-05-10T04:40:01.713792","MEAN_MOTION":13.10375305,"ECCENTRICITY":0.0001889,"INCLINATION":87.8859,"RA_OF_ASC_NODE":43.8485,"ARG_OF_PERICENTER":75.9829,"MEAN_ANOMALY":284.1508,"EPHEMERIS_TYPE":0,"CLASSIFICATION_TYPE":"U","NORAD_CAT_ID":45153,"ELEMENT_SET_NO":999,"REV_AT_EPOCH":30283,"BSTAR":0.0008617200000000001,"MEAN_MOTION_DOT":3.13e-06,"MEAN_MOTION_DDOT":0.0},{"OBJECT_NAME":"ONEWEB-0049","OBJECT_ID":"2020-008Z","EPOCH":"2026-05-10T04:44:37.120704","MEAN_MOTION":13.10375068,"ECCENTRICITY":0.0001875,"INCLINATION":87.886,"RA_OF_ASC_NODE":43.8364,"ARG_OF_PERICENTER":91.7578,"MEAN_ANOMALY":268.3764,"EPHEMERIS_TYPE":0,"CLASSIFICATION_TYPE":"U","NORAD_CAT_ID":45154,"ELEMENT_SET_NO":999,"REV_AT_EPOCH":30305,"BSTAR":0.0011676,"MEAN_MOTION_DOT":4.2e-06,"MEAN_MOTION_DDOT":0.0},{"OBJECT_NAME":"ONEWEB-0051","OBJECT_ID":"2020-008AA","EPOCH":"2026-05-10T03:59:16.952352","MEAN_MOTION":13.11422926,"ECCENTRICITY":0.0001967,"INCLINATION":87.8922,"RA_OF_ASC_NODE":28.6284,"ARG_OF_PERICENTER":81.4541,"MEAN_ANOMALY":278.681,"EPHEMERIS_TYPE":0,"CLASSIFICATION_TYPE":"U","NORAD_CAT_ID":45155,"ELEMENT_SET_NO":999,"REV_AT_EPOCH":30610,"BSTAR":0.0043774,"MEAN_MOTION_DOT":1.564e-05,"MEAN_MOTION_DDOT":0.0},{"OBJECT_NAME":"ONEWEB-0052","OBJECT_ID":"2020-008AB","EPOCH":"2026-05-10T03:23:45.059136","MEAN_MOTION":13.10370517,"ECCENTRICITY":0.0001897,"INCLINATION":87.8856,"RA_OF_ASC_NODE":43.833,"ARG_OF_PERICENTER":93.3665,"MEAN_ANOMALY":266.7679,"EPHEMERIS_TYPE":0,"CLASSIFICATION_TYPE":"U","NORAD_CAT_ID":45156,"ELEMENT_SET_NO":999,"REV_AT_EPOCH":30295,"BSTAR":0.0012118,"MEAN_MOTION_DOT":4.36e-06,"MEAN_MOTION_DDOT":0.0},{"OBJECT_NAME":"ONEWEB-0053","OBJECT_ID":"2020-008AC","EPOCH":"2026-05-10T04:11:19.311648","MEAN_MOTION":13.10373526,"ECCENTRICITY":0.0002258,"INCLINATION":87.8856,"RA_OF_ASC_NODE":43.8491,"ARG_OF_PERICENTER":88.7955,"MEAN_ANOMALY":271.3431,"EPHEMERIS_TYPE":0,"CLASSIFICATION_TYPE":"U","NORAD_CAT_ID":45157,"ELEMENT_SET_NO":999,"REV_AT_EPOCH":30293,"BSTAR":-0.0017287,"MEAN_MOTION_DOT":-5.91e-06,"MEAN_MOTION_DDOT":0.0},{"OBJECT_NAME":"ONEWEB-0054","OBJECT_ID":"2020-008AD","EPOCH":"2026-05-10T05:01:33.176928","MEAN_MOTION":13.10372331,"ECCENTRICITY":0.0001842,"INCLINATION":87.8862,"RA_OF_ASC_NODE":43.8224,"ARG_OF_PERICENTER":83.2529,"MEAN_ANOMALY":276.8808,"EPHEMERIS_TYPE":0,"CLASSIFICATION_TYPE":"U","NORAD_CAT_ID":45158,"ELEMENT_SET_NO":999,"REV_AT_EPOCH":30305,"BSTAR":0.001934,"MEAN_MOTION_DOT":6.88e-06,"MEAN_MOTION_DDOT":0.0}]