ONEWEB-0033             
1 45142U 20008M   26130.17951368 -.00000423  00000+0 -12491-2 0  9997
2 45142  87.8858  43.8422 0001535  64.5376 295.5910 13.10375606303234
ONEWEB-0035             
1 45143U 20008N   26130.20477204  .00000636  00000+0  17710-2 0  9997
2 45143  87.8852  43.8324 0001772  75.5622 284.5703 13.10886714302963
ONEWEB-0036             
1 45144U 20008P   26130.15985096 -.00000359  00000+0 -10720-2 0  9993
2 45144  87.8868  43.8379 0002026  85.6355 274.5003 13.09816620303385
ONEWEB-0038             
1 45145U 20008Q   26130.17307929  .00000510  00000+0  14018-2 0  9990
2 45145  87.8936  28.6323 0003040  50.6090 309.5307 13.11418530305342
ONEWEB-0039             
1 45146U 20008R   26130.18283715 -.00000131  00000+0 -41220-3 0  9995
2 45146  87.8857  43.8307 0002263  83.1224 277.0160 13.10373055303189
ONEWEB-0040             
1 45147U 20008S   26129.79440064 -.00000535  00000+0 -15681-2 0  9992
2 45147  87.8855  43.9199 0001864  75.4637 284.6697 13.10375065302839
ONEWEB-0043             
1 45149U 20008U   26130.17784707 -.00000521  00000+0 -15289-2 0  9992
2 45149  87.8859  43.8299 0002394  85.3611 274.7790 13.10374094303203
ONEWEB-0044             
1 45150U 20008V   26130.20609478  .00000663  00000+0  18628-2 0  9994
2 45150  87.8865  43.8223 0002082  79.3206 280.8156 13.10373624303501
ONEWEB-0045             
1 45151U 20008W   26130.16785558  .00000511  00000+0  14046-2 0  9996
2 45151  87.8928  28.6178 0001949  79.5009 280.6339 13.11419148305423
ONEWEB-0047             
1 45152U 20008X   26130.19944788  .00000523  00000+0  14613-2 0  9995
2 45152  87.8864  43.8237 0001864  72.8830 287.2501 13.10374302303223
ONEWEB-0048             
1 45153U 20008Y   26130.19446428  .00000313  00000+0  86172-3 0  9991
2 45153  87.8859  43.8485 0001889  75.9829 284.1508 13.10375305302835
ONEWEB-0049             
1 45154U 20008Z   26130.19765186  .00000420  00000+0  11676-2 0  9992
2 45154  87.8860  43.8364 0001875  91.7578 268.3764 13.10375068303055
ONEWEB-0051             
1 45155U 20008AA  26130.16616843  .00001564  00000+0  43774-2 0  9999
2 45155  87.8922  28.6284 0001967  81.4541 278.6810 13.11422926306107
ONEWEB-0052             
1 45156U 20008AB  26130.14149374  .00000436  00000+0  12118-2 0  9993
2 45156  87.8856  43.8330 0001897  93.3665 266.7679 13.10370517302953
ONEWEB-0053             
1 45157U 20008AC  26130.17452907 -.00000591  00000+0 -17287-2 0  9992
2 45157  87.8856  43.8491 0002258  88.7955 271.3431 13.10373526302933
ONEWEB-0054             
1 45158U 20008AD  26130.20941177  .00000688  00000+0  19340-2 0  9996
2 45158  87.8862  43.8224 0001842  83.2529 276.8808 13.10372331303055
